IRIDIUM 159             
1 43578U 18061K   25191.54979706  .00000054  00000+0  12156-4 0  9995
2 43578  86.3979 199.4432 0002423  94.5359 265.6114 14.34218074364416
IRIDIUM 180             
1 43922U 19002A   25191.82836818  .00000013  00000+0 -25709-5 0  9996
2 43922  86.3999 136.3096 0002254  83.2673 276.8779 14.34217522340101
IRIDIUM 176             
1 43923U 19002B   25192.36891784  .00000572  00000+0  86787-4 0  9991
2 43923  86.6122 136.0747 0002725  72.8256 287.3259 14.72247118349102
IRIDIUM 168             
1 43924U 19002C   25191.54295053  .00000177  00000+0  56316-4 0  9994
2 43924  86.3999 136.4964 0002330  84.7225 275.4236 14.34217302340000
IRIDIUM 173             
1 43925U 19002D   25192.36749585  .00000149  00000+0  46097-4 0  9994
2 43925  86.4060 136.0494 0003791  67.1575 293.0020 14.34197802340111
IRIDIUM 169             
1 43926U 19002E   25192.42894344  .00000207  00000+0  61230-4 0  9997
2 43926  86.4261 167.6134 0002728  54.4051 305.7401 14.38613830341239
IRIDIUM 172             
1 43927U 19002F   25191.59369251 -.00000002  00000+0 -77843-5 0  9992
2 43927  86.3998 136.3849 0002429  86.8656 273.2817 14.34217461340000
IRIDIUM 175             
1 43928U 19002G   25192.16001197  .00000579  00000+0  87855-4 0  9999
2 43928  86.1490  87.3118 0001500  74.2230 285.9152 14.72245772349063
